{"type": "FeatureCollection", "features": [ {"type": "Feature", "properties": {"norad_id": 66911, "name": "1998-067XX", "group": "stations", "lat": 51.318950160462116, "lon": -128.0381789539423, "alt_km": 404.6929289206446, "timestamp": "2025-12-14T11:29:48.821884+00:00", "meta": {"OBJECT_NAME": "1998-067XX", "OBJECT_ID": "1998-067XX", "EPOCH": "2025-12-13T16:32:49.998912", "MEAN_MOTION": 15.52189321, "ECCENTRICITY": 0.00048024, "INCLINATION": 51.6299, "RA_OF_ASC_NODE": 137.6321, "ARG_OF_PERICENTER": 215.3057, "MEAN_ANOMALY": 144.7616, "EPHEMERIS_TYPE": 0, "CLASSIFICATION_TYPE": "U", "NORAD_CAT_ID": 66911, "ELEMENT_SET_NO": 999, "REV_AT_EPOCH": 175, "BSTAR": 0.0012499181, "MEAN_MOTION_DOT": 0.00077443, "MEAN_MOTION_DDOT": 0}, "tle": {"line1": "1 66911U 98067XX  25347.68946758  .00077443  00000+0  12499-2 0  9998", "line2": "2 66911  51.6299 137.6321 0004802 215.3057 144.7616 15.52189321  1756"}}, "geometry": {"type": "Point", "coordinates": [-128.0381789539423, 51.318950160462116]}}, {"type": "Feature", "properties": {"norad_id": 66912, "name": "1998-067XY", "group": "stations", "lat": 46.50409369417672, "lon": -169.62007226046117, "alt_km": 409.35462364605974, "timestamp": "2025-12-14T11:29:48.821894+00:00", "meta": {"OBJECT_NAME": "1998-067XY", "OBJECT_ID": "1998-067XY", "EPOCH": "2025-12-13T16:39:11.573280", "MEAN_MOTION": 15.51258263, "ECCENTRICITY": 0.00045018, "INCLINATION": 51.6303, "RA_OF_ASC_NODE": 137.6613, "ARG_OF_PERICENTER": 228.8979, "MEAN_ANOMALY": 131.1622, "EPHEMERIS_TYPE": 0, "CLASSIFICATION_TYPE": "U", "NORAD_CAT_ID": 66912, "ELEMENT_SET_NO": 999, "REV_AT_EPOCH": 175, "BSTAR": 0.00089167001, "MEAN_MOTION_DOT": 0.00053126, "MEAN_MOTION_DDOT": 0}, "tle": {"line1": "1 66912U 98067XY  25347.69388395  .00053126  00000+0  89167-3 0  9996", "line2": "2 66912  51.6303 137.6613 0004501 228.8979 131.1622 15.51258263  1753"}}, "geometry": {"type": "Point", "coordinates": [-169.62007226046117, 46.50409369417672]}}]}